{
  "type": "FeatureCollection",
  "features": [
    {
      "type": "Feature",
      "properties": {
        "norad_id": 28054,
        "name": "DMSP 5D-3 F16 (USA 172)",
        "group": "weather",
        "lat": -70.05305545127213,
        "lon": 172.97628911003855,
        "alt_km": 847.3178093946763,
        "timestamp": "2025-12-27T07:26:24.863465+00:00",
        "meta_object_name": "DMSP 5D-3 F16 (USA 172)",
        "meta_object_id": "2003-048A",
        "meta_epoch": "2025-12-26T22:04:34.886208",
        "meta_mean_motion": 14.14429207,
        "meta_eccentricity": 0.00062428,
        "meta_inclination": 99.0037,
        "meta_ra_of_asc_node": 18.4877,
        "meta_arg_of_pericenter": 275.2562,
        "meta_mean_anomaly": 151.2817,
        "meta_ephemeris_type": 0,
        "meta_classification_type": "U",
        "meta_norad_cat_id": 28054,
        "meta_element_set_no": 999,
        "meta_rev_at_epoch": 14513,
        "meta_bstar": 9.6118652e-05,
        "meta_mean_motion_dot": 1.39e-06,
        "meta_mean_motion_ddot": 0,
        "tle_line1": "1 28054U 03048A   25360.91984822  .00000139  00000+0  96119-4 0  9995",
        "tle_line2": "2 28054  99.0037  18.4877 0006242 275.2562 151.2817 14.14429207145130"
      },
      "geometry": {
        "type": "Point",
        "coordinates": [
          172.97628911003855,
          -70.05305545127213
        ]
      }
    },
    {
      "type": "Feature",
      "properties": {
        "norad_id": 28912,
        "name": "METEOSAT-9 (MSG-2)",
        "group": "weather",
        "lat": -2.4398763019712097,
        "lon": -108.56723217148335,
        "alt_km": 35765.848161169604,
        "timestamp": "2025-12-27T07:26:24.863511+00:00",
        "meta_object_name": "METEOSAT-9 (MSG-2)",
        "meta_object_id": "2005-049B",
        "meta_epoch": "2025-12-24T18:27:10.310976",
        "meta_mean_motion": 1.00268275,
        "meta_eccentricity": 0.00719695,
        "meta_inclination": 8.9553,
        "meta_ra_of_asc_node": 55.846,
        "meta_arg_of_pericenter": 282.2974,
        "meta_mean_anomaly": 77.0088,
        "meta_ephemeris_type": 0,
        "meta_classification_type": "U",
        "meta_norad_cat_id": 28912,
        "meta_element_set_no": 999,
        "meta_rev_at_epoch": 524,
        "meta_bstar": 0,
        "meta_mean_motion_dot": 1.45e-06,
        "meta_mean_motion_ddot": 0,
        "tle_line1": "1 28912U 05049B   25358.76886934  .00000145  00000+0  00000+0 0  9992",
        "tle_line2": "2 28912   8.9553  55.8460 0071969 282.2974  77.0088  1.00268275  5240"
      },
      "geometry": {
        "type": "Point",
        "coordinates": [
          -108.56723217148335,
          -2.4398763019712097
        ]
      }
    },
    {
      "type": "Feature",
      "properties": {
        "norad_id": 29522,
        "name": "DMSP 5D-3 F17 (USA 191)",
        "group": "weather",
        "lat": -37.78545590057169,
        "lon": 179.54668703147374,
        "alt_km": 843.0870600429807,
        "timestamp": "2025-12-27T07:26:24.863529+00:00",
        "meta_object_name": "DMSP 5D-3 F17 (USA 191)",
        "meta_object_id": "2006-050A",
        "meta_epoch": "2025-12-26T23:37:25.538304",
        "meta_mean_motion": 14.14925768,
        "meta_eccentricity": 0.00100328,
        "meta_inclination": 98.7393,
        "meta_ra_of_asc_node": 6.0768,
        "meta_arg_of_pericenter": 182.6293,
        "meta_mean_anomaly": 177.4829,
        "meta_ephemeris_type": 0,
        "meta_classification_type": "U",
        "meta_norad_cat_id": 29522,
        "meta_element_set_no": 999,
        "meta_rev_at_epoch": 98806,
        "meta_bstar": 0.0001275482,
        "meta_mean_motion_dot": 2.03e-06,
        "meta_mean_motion_ddot": 0,
        "tle_line1": "1 29522U 06050A   25360.98432336  .00000203  00000+0  12755-3 0  9992",
        "tle_line2": "2 29522  98.7393   6.0768 0010032 182.6293 177.4829 14.14925768988061"
      },
      "geometry": {
        "type": "Point",
        "coordinates": [
          179.54668703147374,
          -37.78545590057169
        ]
      }
    },
    {
      "type": "Feature",
      "properties": {
        "norad_id": 32958,
        "name": "FENGYUN 3A",
        "group": "weather",
        "lat": 7.153312968882252,
        "lon": 121.6285502059887,
        "alt_km": 828.9640237825561,
        "timestamp": "2025-12-27T07:26:24.863542+00:00",
        "meta_object_name": "FENGYUN 3A",
        "meta_object_id": "2008-026A",
        "meta_epoch": "2025-12-26T20:28:43.261536",
        "meta_mean_motion": 14.19518996,
        "meta_eccentricity": 0.00076137,
        "meta_inclination": 98.6714,
        "meta_ra_of_asc_node": 300.084,
        "meta_arg_of_pericenter": 264.5136,
        "meta_mean_anomaly": 95.5172,
        "meta_ephemeris_type": 0,
        "meta_classification_type": "U",
        "meta_norad_cat_id": 32958,
        "meta_element_set_no": 999,
        "meta_rev_at_epoch": 91095,
        "meta_bstar": 8.1606007e-05,
        "meta_mean_motion_dot": 1.29e-06,
        "meta_mean_motion_ddot": 0,
        "tle_line1": "1 32958U 08026A   25360.85327849  .00000129  00000+0  81606-4 0  9991",
        "tle_line2": "2 32958  98.6714 300.0840 0007613 264.5136  95.5172 14.19518996910959"
      },
      "geometry": {
        "type": "Point",
        "coordinates": [
          121.6285502059887,
          7.153312968882252
        ]
      }
    },
    {
      "type": "Feature",
      "properties": {
        "norad_id": 35491,
        "name": "GOES 14",
        "group": "weather",
        "lat": 0.09307565934314521,
        "lon": 88.70795471772476,
        "alt_km": 35838.37060898799,
        "timestamp": "2025-12-27T07:26:24.863556+00:00",
        "meta_object_name": "GOES 14",
        "meta_object_id": "2009-033A",
        "meta_epoch": "2025-12-26T22:44:26.774304",
        "meta_mean_motion": 1.00097083,
        "meta_eccentricity": 7.861e-05,
        "meta_inclination": 1.2388,
        "meta_ra_of_asc_node": 85.255,
        "meta_arg_of_pericenter": 194.6495,
        "meta_mean_anomaly": 38.1879,
        "meta_ephemeris_type": 0,
        "meta_classification_type": "U",
        "meta_norad_cat_id": 35491,
        "meta_element_set_no": 999,
        "meta_rev_at_epoch": 486,
        "meta_bstar": 0,
        "meta_mean_motion_dot": 4.4e-07,
        "meta_mean_motion_ddot": 0,
        "tle_line1": "1 35491U 09033A   25360.94753211  .00000044  00000+0  00000+0 0  9991",
        "tle_line2": "2 35491   1.2388  85.2550 0000786 194.6495  38.1879  1.00097083  4862"
      },
      "geometry": {
        "type": "Point",
        "coordinates": [
          88.70795471772476,
          0.09307565934314521
        ]
      }
    },
    {
      "type": "Feature",
      "properties": {
        "norad_id": 35951,
        "name": "DMSP 5D-3 F18 (USA 210)",
        "group": "weather",
        "lat": 75.11772077699703,
        "lon": -58.42105859180805,
        "alt_km": 830.9439986969173,
        "timestamp": "2025-12-27T07:26:24.863568+00:00",
        "meta_object_name": "DMSP 5D-3 F18 (USA 210)",
        "meta_object_id": "2009-057A",
        "meta_epoch": "2025-12-26T22:35:13.219872",
        "meta_mean_motion": 14.14778779,
        "meta_eccentricity": 0.00116262,
        "meta_inclination": 98.8851,
        "meta_ra_of_asc_node": 337.272,
        "meta_arg_of_pericenter": 25.1311,
        "meta_mean_anomaly": 335.0426,
        "meta_ephemeris_type": 0,
        "meta_classification_type": "U",
        "meta_norad_cat_id": 35951,
        "meta_element_set_no": 999,
        "meta_rev_at_epoch": 83523,
        "meta_bstar": 0.0001921171,
        "meta_mean_motion_dot": 3.26e-06,
        "meta_mean_motion_ddot": 0,
        "tle_line1": "1 35951U 09057A   25360.94112523  .00000326  00000+0  19212-3 0  9995",
        "tle_line2": "2 35951  98.8851 337.2720 0011626  25.1311 335.0426 14.14778779835236"
      },
      "geometry": {
        "type": "Point",
        "coordinates": [
          -58.42105859180805,
          75.11772077699703
        ]
      }
    },
    {
      "type": "Feature",
      "properties": {
        "norad_id": 36411,
        "name": "EWS-G2 (GOES 15)",
        "group": "weather",
        "lat": -0.0617257309383045,
        "lon": -91.01041317038538,
        "alt_km": 35762.34828413791,
        "timestamp": "2025-12-27T07:26:24.863582+00:00",
        "meta_object_name": "EWS-G2 (GOES 15)",
        "meta_object_id": "2010-008A",
        "meta_epoch": "2025-12-26T20:14:26.686752",
        "meta_mean_motion": 1.00271016,
        "meta_eccentricity": 0.00056621,
        "meta_inclination": 0.8465,
        "meta_ra_of_asc_node": 86.0633,
        "meta_arg_of_pericenter": 179.6684,
        "meta_mean_anomaly": 194.8097,
        "meta_ephemeris_type": 0,
        "meta_classification_type": "U",
        "meta_norad_cat_id": 36411,
        "meta_element_set_no": 999,
        "meta_rev_at_epoch": 5791,
        "meta_bstar": 0,
        "meta_mean_motion_dot": 6e-07,
        "meta_mean_motion_ddot": 0,
        "tle_line1": "1 36411U 10008A   25360.84336443  .00000060  00000+0  00000+0 0  9999",
        "tle_line2": "2 36411   0.8465  86.0633 0005662 179.6684 194.8097  1.00271016 57914"
      },
      "geometry": {
        "type": "Point",
        "coordinates": [
          -91.01041317038538,
          -0.0617257309383045
        ]
      }
    }
  ]
}